STARLINK-11469 [DTC]    
1 62227U 24231K   26177.76499328  .00133244  00000+0  10855-2 0  9999
2 62227  53.1573 283.5130 0001145  80.5062 279.6086 15.69745631 90542
STARLINK-11476 [DTC]    
1 62228U 24231L   26177.99514473  .00175390  00000+0  14210-2 0  9991
2 62228  53.1562 282.0955 0002530  77.8929 282.2372 15.69727252 90592
STARLINK-11485 [DTC]    
1 62229U 24231M   26178.01476733  .00143528  00000+0  11669-2 0  9995
2 62229  53.1574 282.2264 0001265  73.5041 286.6116 15.69755697 90580
STARLINK-11481 [DTC]    
1 62230U 24231N   26177.99034373  .00142393  00000+0  11584-2 0  9998
2 62230  53.1558 282.7978 0001768  76.3999 283.7216 15.69744377 90573
STARLINK-32650          
1 62231U 24231P   26177.99088723  .00025671  00000+0  83665-3 0  9996
2 62231  53.1588  71.8855 0000437  67.4623 292.6425 15.31680767 88507
STARLINK-32636          
1 62232U 24231Q   26177.97226192  .00027403  00000+0  93436-3 0  9991
2 62232  53.1598  71.7704 0001363  96.8642 263.2514 15.30185290 88500
STARLINK-32643          
1 62233U 24231R   26177.93648694  .00023158  00000+0  75609-3 0  9998
2 62233  53.1589  58.7663 0001270  84.0976 276.0170 15.31683713 88678
STARLINK-32652          
1 62234U 24231S   26178.25650397  .00347454  00000+0  10961-1 0  9994
2 62234  53.1576  70.6941 0001233  97.7010 262.4131 15.30911052 88536
STARLINK-32631          
1 62235U 24231T   26177.98306994  .00034014  00000+0  11033-2 0  9992
2 62235  53.1597  58.3493 0001089  84.0426 276.0700 15.31685883 88684
STARLINK-32641          
1 62236U 24231U   26177.93277738  .00031842  00000+0  10831-2 0  9992
2 62236  53.1603  59.4461 0001169 100.2977 259.8156 15.30184180 88666
QIANFAN-37              
1 62238U 24232B   26178.26020612  .00000072  00000+0  93294-4 0  9996
2 62238  89.0066  21.5732 0001496  96.2511 263.8810 13.51010005125705
QIANFAN-38              
1 62239U 24232C   26178.28488293  .00000058  00000+0  71947-4 0  9997
2 62239  89.0073  21.5000 0014313 355.7595   4.3432 13.51006831125765
QIANFAN-39              
1 62240U 24232D   26178.25792354  .00000152  00000+0  57881-4 0  9998
2 62240  89.0056  14.9194 0017241 147.7231 212.5021 14.25528617129389
QIANFAN-40              
1 62241U 24232E   26178.24371547  .00000047  00000+0  54746-4 0  9995
2 62241  89.0100  21.1434 0013663   4.4416 355.6854 13.51008560126125
QIANFAN-41              
1 62242U 24232F   26178.25196642  .00000070  00000+0  90125-4 0  9995
2 62242  89.0071  21.4510 0013587 352.2813   7.8127 13.51011091125784
QIANFAN-42              
1 62243U 24232G   26178.24064265  .00000138  00000+0  52931-4 0  9998
2 62243  89.0054  14.9977 0015839 153.5421 206.6584 14.24617255129346
QIANFAN-43              
1 62244U 24232H   26178.24784469  .00000065  00000+0  82924-4 0  9998
2 62244  89.0075  21.5256 0015304 356.6711   3.4336 13.51010743 94391
QIANFAN-44              
1 62245U 24232J   26178.23546899  .00000044  00000+0  50182-4 0  9999
2 62245  89.0074  21.3343 0013442 354.7821   5.3188 13.51012646125865
QIANFAN-45              
1 62246U 24232K   26178.27667539  .00000054  00000+0  64828-4 0  9992
2 62246  89.0077  21.4838 0014067 353.8504   6.2472 13.51010168125796
QIANFAN-46              
1 62247U 24232L   26178.22727848  .00000048  00000+0  56074-4 0  9995
2 62247  89.0073  21.5497 0014334 359.5315   0.5821 13.51010868125742
QIANFAN-47              
1 62248U 24232M   26178.23139920  .00000061  00000+0  76620-4 0  9999
2 62248  89.0069  21.4743 0014723 358.4307   1.6795 13.51009883125772
QIANFAN-48              
1 62249U 24232N   26178.26834846  .00000075  00000+0  98080-4 0  9991
2 62249  89.0073  21.4800 0017044 359.8414   0.2729 13.51014546125780
QIANFAN-49              
1 62250U 24232P   26178.25603566  .00000063  00000+0  79767-4 0  9993
2 62250  89.0072  21.4922 0013944 355.9072   4.1963 13.51013050 94370
QIANFAN-50              
1 62251U 24232Q   26178.28078451  .00000050  00000+0  59296-4 0  9997
2 62251  89.0078  21.5086 0015642 356.2963   3.8070 13.51009858 94409
QIANFAN-51              
1 62252U 24232R   26178.26431678  .00000071  00000+0  90687-4 0  9992
2 62252  89.0071  21.4920 0013293   1.4879 358.6309 13.51006640 94394
QIANFAN-52              
1 62253U 24232S   26178.21901047  .00000070  00000+0  90163-4 0  9998
2 62253  89.0068  21.3626 0014991 352.6064   7.4864 13.51012324 94476
QIANFAN-53              
1 62254U 24232T   26178.27251115  .00000053  00000+0  63928-4 0  9999
2 62254  89.0075  21.4765 0013901 354.2434   5.8555 13.51009001 94443
QIANFAN-54              
1 62255U 24232U   26178.23958108  .00000035  00000+0  35976-4 0  9994
2 62255  89.0066  21.1410 0003652  57.9378 302.2128 13.51012875125947
PROBA-3 CSC             
1 62256U 24233A   26167.48839492 -.00000319  00000+0  21263-2 0  9993
2 62256  59.7021  97.5372 8002505 205.5638  68.8708  1.22073990  6814
PROBA-3 OSC             
1 62258U 24233C   26174.85983792 -.00000387  00000+0  11522-1 0  9998
2 62258  59.7002  96.9256 8001838 205.7778  68.2981  1.22075083  6894
