OBJECT_NAME,OBJECT_ID,EPOCH,MEAN_MOTION,ECCENTRICITY,INCLINATION,RA_OF_ASC_NODE,ARG_OF_PERICENTER,MEAN_ANOMALY,EPHEMERIS_TYPE,CLASSIFICATION_TYPE,NORAD_CAT_ID,ELEMENT_SET_NO,REV_AT_EPOCH,BSTAR,MEAN_MOTION_DOT,MEAN_MOTION_DDOT
STARLINK-11469 [DTC],2024-231K,2026-06-26T18:21:35.419392,15.69745631,.00011452,53.1573,283.5130,80.5062,279.6086,0,U,62227,999,9054,.10854784E-2,.133244E-2,0
STARLINK-11476 [DTC],2024-231L,2026-06-26T23:53:00.504672,15.69727252,.00025302,53.1562,282.0955,77.8929,282.2372,0,U,62228,999,9059,.14210384E-2,.17539E-2,0
STARLINK-11485 [DTC],2024-231M,2026-06-27T00:21:15.897312,15.69755697,.00012651,53.1574,282.2264,73.5041,286.6116,0,U,62229,999,9058,.11669497E-2,.143528E-2,0
STARLINK-11481 [DTC],2024-231N,2026-06-26T23:46:05.698272,15.69744377,.0001768,53.1558,282.7978,76.3999,283.7216,0,U,62230,999,9057,.11584416E-2,.142393E-2,0
STARLINK-32650,2024-231P,2026-06-26T23:46:52.656672,15.31680767,.00004379,53.1588,71.8855,67.4623,292.6425,0,U,62231,999,8850,.83664538E-3,.25671E-3,0
STARLINK-32636,2024-231Q,2026-06-26T23:20:03.429888,15.30185290,.00013635,53.1598,71.7704,96.8642,263.2514,0,U,62232,999,8850,.9343583E-3,.27403E-3,0
STARLINK-32643,2024-231R,2026-06-26T22:28:32.471616,15.31683713,.000127,53.1589,58.7663,84.0976,276.0170,0,U,62233,999,8867,.75609E-3,.23158E-3,0
STARLINK-32652,2024-231S,2026-06-27T06:09:21.943008,15.30911052,.00012338,53.1576,70.6941,97.7010,262.4131,0,U,62234,999,8853,.10961378E-1,.347454E-2,0
STARLINK-32631,2024-231T,2026-06-26T23:35:37.242816,15.31685883,.00010891,53.1597,58.3493,84.0426,276.0700,0,U,62235,999,8868,.11033436E-2,.34014E-3,0
STARLINK-32641,2024-231U,2026-06-26T22:23:11.965632,15.30184180,.0001169,53.1603,59.4461,100.2977,259.8156,0,U,62236,999,8866,.10831E-2,.31842E-3,0
QIANFAN-37,2024-232B,2026-06-27T06:14:41.808768,13.51010005,.0001496,89.0066,21.5732,96.2511,263.8810,0,U,62238,999,12570,.93293903E-4,.72E-6,0
QIANFAN-38,2024-232C,2026-06-27T06:50:13.885152,13.51006831,.00143138,89.0073,21.5000,355.7595,4.3432,0,U,62239,999,12576,.71946919E-4,.58E-6,0
QIANFAN-39,2024-232D,2026-06-27T06:11:24.593856,14.25528617,.00172416,89.0056,14.9194,147.7231,212.5021,0,U,62240,999,12938,.57880988E-4,.152E-5,0
QIANFAN-40,2024-232E,2026-06-27T05:50:57.016608,13.51008560,.00136636,89.0100,21.1434,4.4416,355.6854,0,U,62241,999,12612,.54746059E-4,.47E-6,0
QIANFAN-41,2024-232F,2026-06-27T06:02:49.898688,13.51011091,.00135872,89.0071,21.4510,352.2813,7.8127,0,U,62242,999,12578,.90125014E-4,.7E-6,0
QIANFAN-42,2024-232G,2026-06-27T05:46:31.524960,14.24617255,.00158392,89.0054,14.9977,153.5421,206.6584,0,U,62243,999,12934,.52930935E-4,.138E-5,0
QIANFAN-43,2024-232H,2026-06-27T05:56:53.781216,13.51010743,.00153049,89.0075,21.5256,356.6711,3.4336,0,U,62244,999,9439,.82924303E-4,.65E-6,0
QIANFAN-44,2024-232J,2026-06-27T05:39:04.520736,13.51012646,.00134426,89.0074,21.3343,354.7821,5.3188,0,U,62245,999,12586,.50181885E-4,.44E-6,0
QIANFAN-45,2024-232K,2026-06-27T06:38:24.753696,13.51010168,.00140679,89.0077,21.4838,353.8504,6.2472,0,U,62246,999,12579,.64827906E-4,.54E-6,0
QIANFAN-46,2024-232L,2026-06-27T05:27:16.860672,13.51010868,.00143346,89.0073,21.5497,359.5315,0.5821,0,U,62247,999,12574,.56074165E-4,.48E-6,0
QIANFAN-47,2024-232M,2026-06-27T05:33:12.890880,13.51009883,.00147237,89.0069,21.4743,358.4307,1.6795,0,U,62248,999,12577,.76619534E-4,.61E-6,0
QIANFAN-48,2024-232N,2026-06-27T06:26:25.306944,13.51014546,.00170441,89.0073,21.4800,359.8414,0.2729,0,U,62249,999,12578,.98079949E-4,.75E-6,0
QIANFAN-49,2024-232P,2026-06-27T06:08:41.481024,13.51013050,.00139449,89.0072,21.4922,355.9072,4.1963,0,U,62250,999,9437,.79766625E-4,.63E-6,0
QIANFAN-50,2024-232Q,2026-06-27T06:44:19.781664,13.51009858,.00156424,89.0078,21.5086,356.2963,3.8070,0,U,62251,999,9440,.59295803E-4,.5E-6,0
QIANFAN-51,2024-232R,2026-06-27T06:20:36.969792,13.51006640,.00132933,89.0071,21.4920,1.4879,358.6309,0,U,62252,999,9439,.90686638E-4,.71E-6,0
QIANFAN-52,2024-232S,2026-06-27T05:15:22.504608,13.51012324,.00149917,89.0068,21.3626,352.6064,7.4864,0,U,62253,999,9447,.90163331E-4,.7E-6,0
QIANFAN-53,2024-232T,2026-06-27T06:32:24.963360,13.51009001,.00139017,89.0075,21.4765,354.2434,5.8555,0,U,62254,999,9444,.63928233E-4,.53E-6,0
QIANFAN-54,2024-232U,2026-06-27T05:44:59.805312,13.51012875,.0003652,89.0066,21.1410,57.9378,302.2128,0,U,62255,999,12594,.35975979E-4,.35E-6,0
PROBA-3 CSC,2024-233A,2026-06-16T11:43:17.321088,1.22073990,.80025054,59.7021,97.5372,205.5638,68.8708,0,U,62256,999,681,.2126279E-2,-.319E-5,0
PROBA-3 OSC,2024-233C,2026-06-23T20:38:09.996288,1.22075083,.80018387,59.7002,96.9256,205.7778,68.2981,0,U,62258,999,689,.11521943E-1,-.387E-5,0
